IRIDIUM 26              
1 24903U 97043A   25072.72494742  .00000841  00000+0  27714-3 0  9992
2 24903  86.4007 150.7154 0002385  91.6592 268.4878 14.37022550443034
IRIDIUM 22              
1 24907U 97043E   25073.20353920  .00000874  00000+0  29507-3 0  9990
2 24907  86.4016 153.9673 0002187  95.0850 265.0596 14.35851788443136
DUMMY MASS 1            
1 24925U 97048A   25072.85561485  .00001062  00000+0  11590-3 0  9995
2 24925  86.3416 179.3721 0008725 116.2464 243.9658 14.86853471490960
DUMMY MASS 2            
1 24926U 97048B   25072.80191091  .00001071  00000+0  11754-3 0  9995
2 24926  86.3416 180.9845 0009280 126.1287 234.0798 14.86606190490731
IRIDIUM 29              
1 24944U 97051A   25072.84164803  .00001063  00000+0  35710-3 0  9993
2 24944  86.4032 183.8483 0002009 100.3162 259.8261 14.36336365439589
IRIDIUM 33              
1 24946U 97051C   25072.78964629  .00000692  00000+0  23703-3 0  9998
2 24946  86.3948 183.1233 0008923  42.4575 317.7310 14.34802449439068
IRIDIUM 28              
1 24948U 97051E   25072.80712851  .00000909  00000+0  29851-3 0  9992
2 24948  86.4038 181.4361 0002399  86.6458 273.5014 14.37267144440146
IRIDIUM 36              
1 24967U 97056C   25072.92402441  .00001112  00000+0  36540-3 0  9992
2 24967  86.3995 212.9664 0001944  88.0041 272.1379 14.37469130438531
